{
  "links" : {
    "next" : "https://api.nasa.gov/neo/rest/v1/feed?start_date=2000-07-09&end_date=2000-07-09&detailed=true&api_key=t0TVs3DtDT2H8Oy2Zy8m2eVrNsAVKAexjcZXUckd",
    "prev" : "https://api.nasa.gov/neo/rest/v1/feed?start_date=2000-07-07&end_date=2000-07-07&detailed=true&api_key=t0TVs3DtDT2H8Oy2Zy8m2eVrNsAVKAexjcZXUckd",
    "self" : "https://api.nasa.gov/neo/rest/v1/feed?start_date=2000-07-08&end_date=2000-07-08&detailed=true&api_key=t0TVs3DtDT2H8Oy2Zy8m2eVrNsAVKAexjcZXUckd"
  },
  "element_count" : 6,
  "near_earth_objects" : {
    "2000-07-08" : [ {
      "links" : {
        "self" : "https://api.nasa.gov/neo/rest/v1/neo/2162698?api_key=t0TVs3DtDT2H8Oy2Zy8m2eVrNsAVKAexjcZXUckd"
      },
      "neo_reference_id" : "2162698",
      "name" : "162698 (2000 UN30)",
      "nasa_jpl_url" : "http://ssd.jpl.nasa.gov/sbdb.cgi?sstr=2162698",
      "absolute_magnitude_h" : 18.2,
      "estimated_diameter" : {
        "kilometers" : {
          "estimated_diameter_min" : 0.6089126221,
          "estimated_diameter_max" : 1.3615700154
        },
        "meters" : {
          "estimated_diameter_min" : 608.9126221057,
          "estimated_diameter_max" : 1361.5700153859
        },
        "miles" : {
          "estimated_diameter_min" : 0.3783606449,
          "estimated_diameter_max" : 0.846040122
        },
        "feet" : {
          "estimated_diameter_min" : 1997.7448871092,
          "estimated_diameter_max" : 4467.0933692788
        }
      },
      "is_potentially_hazardous_asteroid" : false,
      "close_approach_data" : [ {
        "close_approach_date" : "2000-07-08",
        "epoch_date_close_approach" : 963039600000,
        "relative_velocity" : {
          "kilometers_per_second" : "13.7666957698",
          "kilometers_per_hour" : "49560.1047714179",
          "miles_per_hour" : "30794.7217675513"
        },
        "miss_distance" : {
          "astronomical" : "0.3569419171",
          "lunar" : "138.850402832",
          "kilometers" : "53397748",
          "miles" : "33179824"
        },
        "orbiting_body" : "Earth"
      } ],
      "orbital_data" : {
        "orbit_id" : "23",
        "orbit_determination_date" : "2017-04-06 09:26:26",
        "orbit_uncertainty" : "0",
        "minimum_orbit_intersection" : ".335718",
        "jupiter_tisserand_invariant" : "3.498",
        "epoch_osculation" : "2458000.5",
        "eccentricity" : ".4878624816781328",
        "semi_major_axis" : "2.11862632511153",
        "inclination" : "20.68958907000189",
        "ascending_node_longitude" : "66.27093485399568",
        "orbital_period" : "1126.367143231367",
        "perihelion_distance" : "1.085028028393996",
        "perihelion_argument" : "271.8112629635094",
        "aphelion_distance" : "3.152224621829063",
        "perihelion_time" : "2458538.449895180272",
        "mean_anomaly" : "188.0649755910735",
        "mean_motion" : ".3196115957069005",
        "equinox" : "J2000"
      }
    }, {
      "links" : {
        "self" : "https://api.nasa.gov/neo/rest/v1/neo/2168791?api_key=t0TVs3DtDT2H8Oy2Zy8m2eVrNsAVKAexjcZXUckd"
      },
      "neo_reference_id" : "2168791",
      "name" : "168791 (2000 SQ43)",
      "nasa_jpl_url" : "http://ssd.jpl.nasa.gov/sbdb.cgi?sstr=2168791",
      "absolute_magnitude_h" : 18.7,
      "estimated_diameter" : {
        "kilometers" : {
          "estimated_diameter_min" : 0.4836764882,
          "estimated_diameter_max" : 1.0815335068
        },
        "meters" : {
          "estimated_diameter_min" : 483.6764882185,
          "estimated_diameter_max" : 1081.533506775
        },
        "miles" : {
          "estimated_diameter_min" : 0.3005425432,
          "estimated_diameter_max" : 0.6720335566
        },
        "feet" : {
          "estimated_diameter_min" : 1586.8651696069,
          "estimated_diameter_max" : 3548.3383903678
        }
      },
      "is_potentially_hazardous_asteroid" : false,
      "close_approach_data" : [ {
        "close_approach_date" : "2000-07-08",
        "epoch_date_close_approach" : 963039600000,
        "relative_velocity" : {
          "kilometers_per_second" : "14.0601302358",
          "kilometers_per_hour" : "50616.468848853",
          "miles_per_hour" : "31451.1053244442"
        },
        "miss_distance" : {
          "astronomical" : "0.4263841154",
          "lunar" : "165.8634185791",
          "kilometers" : "63786156",
          "miles" : "39634880"
        },
        "orbiting_body" : "Earth"
      } ],
      "orbital_data" : {
        "orbit_id" : "25",
        "orbit_determination_date" : "2017-04-06 09:26:03",
        "orbit_uncertainty" : "0",
        "minimum_orbit_intersection" : ".13439",
        "jupiter_tisserand_invariant" : "3.409",
        "epoch_osculation" : "2458000.5",
        "eccentricity" : ".5046745878216532",
        "semi_major_axis" : "2.295274730257101",
        "inclination" : "5.180898535441449",
        "ascending_node_longitude" : "170.9461303733303",
        "orbital_period" : "1270.136626798055",
        "perihelion_distance" : "1.136907901827143",
        "perihelion_argument" : "144.6803787598308",
        "aphelion_distance" : "3.45364155868706",
        "perihelion_time" : "2458087.714872607890",
        "mean_anomaly" : "335.2803332520285",
        "mean_motion" : ".2834340750471391",
        "equinox" : "J2000"
      }
    }, {
      "links" : {
        "self" : "https://api.nasa.gov/neo/rest/v1/neo/2357022?api_key=t0TVs3DtDT2H8Oy2Zy8m2eVrNsAVKAexjcZXUckd"
      },
      "neo_reference_id" : "2357022",
      "name" : "357022 (1999 YG3)",
      "nasa_jpl_url" : "http://ssd.jpl.nasa.gov/sbdb.cgi?sstr=2357022",
      "absolute_magnitude_h" : 19.1,
      "estimated_diameter" : {
        "kilometers" : {
          "estimated_diameter_min" : 0.4023045798,
          "estimated_diameter_max" : 0.8995803882
        },
        "meters" : {
          "estimated_diameter_min" : 402.3045798343,
          "estimated_diameter_max" : 899.5803881691
        },
        "miles" : {
          "estimated_diameter_min" : 0.2499803991,
          "estimated_diameter_max" : 0.5589731654
        },
        "feet" : {
          "estimated_diameter_min" : 1319.8969577037,
          "estimated_diameter_max" : 2951.3793207207
        }
      },
      "is_potentially_hazardous_asteroid" : true,
      "close_approach_data" : [ {
        "close_approach_date" : "2000-07-08",
        "epoch_date_close_approach" : 963039600000,
        "relative_velocity" : {
          "kilometers_per_second" : "16.771967542",
          "kilometers_per_hour" : "60379.0831510294",
          "miles_per_hour" : "37517.2141945938"
        },
        "miss_distance" : {
          "astronomical" : "0.3839322621",
          "lunar" : "149.3496551514",
          "kilometers" : "57435448",
          "miles" : "35688732"
        },
        "orbiting_body" : "Earth"
      } ],
      "orbital_data" : {
        "orbit_id" : "71",
        "orbit_determination_date" : "2017-04-06 09:22:57",
        "orbit_uncertainty" : "0",
        "minimum_orbit_intersection" : ".0430734",
        "jupiter_tisserand_invariant" : "4.823",
        "epoch_osculation" : "2458000.5",
        "eccentricity" : ".3295621524774158",
        "semi_major_axis" : "1.284789949497999",
        "inclination" : "34.51688657567774",
        "ascending_node_longitude" : "293.2855315685359",
        "orbital_period" : "531.9203709006454",
        "perihelion_distance" : ".8613718082600882",
        "perihelion_argument" : "250.2315182001751",
        "aphelion_distance" : "1.70820809073591",
        "perihelion_time" : "2458002.370484893225",
        "mean_anomaly" : "358.7340688599297",
        "mean_motion" : ".6767930308637164",
        "equinox" : "J2000"
      }
    } ]
  }
}